#dP2024  7 24 18  0  0.00000000      96 __u+U IGS20 EXT  IAC
## 2324 324000.00000000   900.00000000 60515 0.7500000000000
+   54   G02G03G04G05G06G07G08G09G10G11G12G13G14G15G16G17G18
+        G19G20G21G22G23G24G25G26G27G28G29G30G31G32R01R02R03
+        R04R05R07R08R09R11R12R13R14R15R16R17R18R19R20R21R22
+        R24R25R26  0  0  0  0  0  0  0  0  0  0  0  0  0  0
+          0  0  0  0  0  0  0  0  0  0  0  0  0  0  0  0  0
++         7  8  9  9  7  9  7  8  6  7  9  8  6  7 10  7  7
++         7 10  8  6  6  6  8  8  8  7  9  7  8  7  9 10  7
++        10  9 10 10  9  8  9  8  8  7  7  8  7  9  8  7  7
++         9  7  8  0  0  0  0  0  0  0  0  0  0  0  0  0  0
++         0  0  0  0  0  0  0  0  0  0  0  0  0  0  0  0  0
%c M  cc GPS ccc cccc cccc cccc cccc ccccc ccccc ccccc ccccc
%c cc cc ccc ccc cccc cccc cccc cccc ccccc ccccc ccccc ccccc
%f  0.0000000  0.000000000  0.00000000000  0.000000000000000
%f  0.0000000  0.000000000  0.00000000000  0.000000000000000
%i    0    0    0    0      0      0      0      0         0
%i    0    0    0    0      0      0      0      0         0
/* IAC                                ULTRA-RAPID PREDICTION
/* S/V CLOCKS ARE ALIGNED TO GNSS TIME                      
/* G:C1WC2W R:C1PC2P E:C1XC5X C:C2IC6I J:C1CC2S             
/* PCV:IGS20_2317 OL/AL:FES2004  NONE     YN ORB:CoN CLK:CoN
*  2024 07 24 22  0  0.00000000
PG02 -14671.063872   4560.622631  22124.595196   -392.584182
PG03 -22899.257189  12452.597739   4598.369474    472.162527
PG04 -20778.064451   2344.850137 -16444.517657    410.504461
PG05  19790.501989    -15.236522 -17935.813776   -180.876794
PG06   5109.049793  25585.362576  -4596.836268    141.411954
PG07  -6830.764874  21902.222561 -12449.649788    -63.585284
PG08 -25356.083226  -5394.285428   6625.486950    288.242208
PG09 -10706.307149  11731.512435 -21381.879251    286.416395
PG10   1968.664144 -17600.234042  19891.760705    -74.849822
PG11  12215.255563  16911.572377 -16451.264740   -710.583096
PG12  23897.195921  -9127.633524   6773.121731   -524.936436
PG13  22631.122609  14135.611755    434.978051    666.658201
PG14  -6006.712967  19177.884110  17296.691067    456.554057
PG15  25676.525127   2452.032514   6210.708769    184.828807
PG16 -17833.616885  -5261.728850 -19461.272355   -227.486397
PG17   4028.937598  17593.841630  19850.058508    670.620413
PG18   6746.691181 -22337.168067 -12470.442271   -639.894624
PG19  13230.721369  18692.630570  13634.243458    515.108253
PG20  13004.212923   8465.075139 -21479.206263    372.412263
PG21 -15886.304788  -2478.457371  21697.530573    106.888136
PG22   1531.163315  16381.439813  21321.508764    -43.484790
PG23  13520.964643 -19740.409105  11322.047399    281.512489
PG24  15440.433180  -2246.016151  21072.338695   -484.381557
PG25  19850.202082 -17251.932013  -2849.476154    498.809910
PG26  -7451.187132 -14364.376662 -21178.395432    113.815579
PG27 -23013.579754 -13232.395959  -3891.022072    -31.845735
PG28  -4846.872962 -26029.443666  -2111.333390   -344.964857
PG29  14648.470965  -8100.163450 -20697.707448   -587.850626
PG30    336.821643  26228.014236  -2963.897467   -352.075022
PG31 -10848.925587 -20291.624263 -13140.528720   -226.498964
PG32  -7206.681329 -17564.433693  18869.626578   -610.315961
PR01  24903.373799  -1782.092942   5260.904865     92.397872
PR02  14516.751964  -8046.182272  19386.236152    -23.828591
PR03  -4334.882859 -10894.445382  22703.927933    104.361012
PR04 -20143.040272  -7689.133357  13668.557263    246.705984
PR05 -25369.124043   -535.537169  -2715.256955    135.019943
PR07   4975.561793  10840.555587 -22502.559032     87.391813
PR08  20375.938644   7449.001918 -13331.129949     -6.148992
PR09 -14162.655901  21028.094888  -2342.139241    199.555190
PR11   6289.300402  10092.480539  22578.905094     17.146367
PR12  15876.657606  -8554.480206  18065.709179     42.849540
PR13  15338.088881 -19745.193041   5046.954262    -49.764508
PR14   4999.293590 -20656.273467 -14105.876091     26.728904
PR15  -7410.470169  -8734.997826 -22766.300079     77.557402
PR16 -15674.327642   8502.212667 -18205.874157     27.667966
PR17  -7515.036609 -23094.339054  -7715.837285    107.564275
PR18 -13832.408935 -19574.047945   8799.460088    153.629635
PR19 -13428.437267  -8130.716467  20097.616389   -285.056774
PR20  -4629.722438  13135.521406  21366.928570   -116.657628
PR21   7100.139979  23115.809827   8170.394154   -120.294491
PR22  13715.334782  19137.739599  -9782.976033     82.578646
PR24   4076.781800 -13984.647450 -20919.847003    -65.053498
PR25   6722.709814  23497.589482   7354.000935    -97.989744
PR26  19457.314966   7820.803240 -14521.010391      6.058828
*  2024 07 24 22 15  0.00000000
PG02 -15199.476169   2188.780759  22157.301238   -392.577434
PG03 -22450.673477  11874.973325   7398.887428    472.176756
PG04 -22312.538086   1462.184174 -14425.833933    410.511361
PG05  18255.699368   1421.651979 -19451.730084   -180.878005
PG06   4972.799290  25971.017829  -1707.953943    141.390977
PG07  -7303.244166  20300.662648 -14655.212530    -63.578819
PG08 -25840.851313  -5832.771635   3895.454100    288.256322
PG09 -12907.701293  10809.207573 -20641.414391    286.430062
PG10   3748.553333 -18823.684188  18418.582466    -74.858950
PG11  12194.286245  18686.835053 -14430.204315   -710.588884
PG12  23228.072129  -8394.253249   9425.985746   -524.939195
PG13  22449.900155  14265.210152  -2426.504151    666.660312
PG14  -7647.431675  20117.200191  15461.861712    456.562031
PG15  26196.320809   2897.737385   3488.251413    184.832614
PG16 -16004.501080  -6514.739321 -20617.942923   -227.476924
PG17   1966.155896  16683.221452  20955.190900    670.613101
PG18   7101.330612 -20802.809767 -14738.776424   -639.898003
PG19  11672.674678  18018.671688  15737.241430    515.113039
PG20  11343.543424  10310.944700 -21626.138513    372.411902
PG21 -16384.207831  -4763.328009  21010.865120    106.886255
PG22   -445.679560  17554.042951  20427.194802    -43.488779
PG23  14535.057605 -20312.732578   8736.335217    281.520448
PG24  15985.601558    188.503100  20825.472178   -484.382730
PG25  20141.271615 -17092.320624     -7.024385    498.810194
PG26  -5632.472242 -15894.532865 -20602.231477    113.809157
PG27 -22413.171739 -13215.544682  -6640.373458    -31.846445
PG28  -4608.546868 -26146.379418    744.261318   -344.978878
PG29  16650.803887  -6989.044589 -19566.057212   -587.848724
PG30    -70.212622  25756.856118  -5724.135816   -352.069079
PG31 -10745.481920 -21661.171705 -10751.405931   -226.498648
PG32  -5143.592266 -16836.334021  20160.848590   -610.313966
PR01  25356.555471  -1931.193922   2090.693433     92.398842
PR02  16785.963279  -8069.364127  17437.360253    -23.828518
PR03  -1520.470574 -10802.613054  23103.094821    104.361598
PR04 -18313.874063  -7485.670680  16135.415844    246.707598
PR05 -25513.201356   -358.154980    507.512725    135.020455
PR07   2158.889254  10744.937063 -22992.911187     87.392645
PR08  18568.671135   7278.088757 -15824.406133     -6.149240
PR09 -13851.510733  20644.805452  -5484.481192    199.557102
PR11   4928.695456  12459.325616  21716.256366     17.145340
PR12  14609.067579  -6593.171170  19871.082984     42.849931
PR13  14820.697421 -19106.271713   8115.291677    -49.764994
PR14   5718.929524 -22064.897354 -11455.939238     26.728770
PR15  -5998.984104 -11125.133208 -22132.258339     77.557058
PR16 -14393.426164   6515.607504 -19996.585536     27.668182
PR17  -7127.318113 -22010.227616 -10684.276010    107.567307
PR18 -14422.409816 -20275.545646   5725.760069    153.631368
PR19 -14572.581341 -10212.557140  18266.575269   -285.057730
PR20  -5737.797988  10663.897133  22449.976499   -116.658193
PR21   6709.953542  21975.459195  11112.430859   -120.297389
PR22  14292.152685  19997.486454  -6785.428665     82.572510
PR24   5288.530834 -11620.138612 -22065.550224    -65.054843
PR25   6368.606323  22458.123799  10318.117447    -97.991236
PR26  17519.371605   7660.877700 -16877.384792      6.060611
EOF
